PERSEUS-M1              
1 40039U 14033AF  26183.15591214  .00001402  00000+0  13144-3 0  9997
2 40039  97.9648 127.5341 0010094 245.1554 114.8617 14.95682004652879
POLYITAN-1              
1 40042U 14033AJ  26182.79921080  .00023270  00000+0  71283-3 0  9993
2 40042  98.0933 210.4473 0008748 101.4445 258.7779 15.33780662655834
TIGRISAT                
1 40043U 14033AK  26183.13996461  .00001997  00000+0  23416-3 0  9995
2 40043  97.7850 332.8105 0049739  27.1271 333.2527 14.85215979647848
AEROCUBE 6A             
1 40045U 14033AM  26183.18475596  .00006014  00000+0  50378-3 0  9995
2 40045  97.7228 349.9756 0037784 325.6828  34.1953 14.98237003648860
AEROCUBE 6B             
1 40046U 14033AN  26183.17247598  .00005588  00000+0  45114-3 0  9991
2 40046  97.7222 349.7869 0037702 316.4138  43.4108 14.99698484649007
CANX-4                  
1 40055U 14034C   26183.21553296  .00001058  00000+0  14281-3 0  9991
2 40055  98.3101  59.0790 0012039 328.4295  31.6193 14.81292189646752
CANX-5                  
1 40056U 14034D   26183.21379093  .00001059  00000+0  14295-3 0  9999
2 40056  98.3104  59.1217 0012043 328.6477  31.4015 14.81309505637561
UKUBE-1                 
1 40074U 14037F   26183.24039049  .00009513  00000+0  53119-3 0  9990
2 40074  98.4235 188.0962 0003152 109.2963 250.8606 15.13782027650838
BRITE-PL2 (HEWELIUSZ)   
1 40119U 14049B   26183.30258279  .00001888  00000+0  17934-3 0  9990
2 40119  97.9111 295.4202 0015091  62.4732 297.8020 14.94648804643705
AEROCUBE 5C             
1 40965U 15058B   26183.25742848  .00002722  00000+0  24471-3 0  9996
2 40965  64.7653 215.7053 0131509  57.3980 303.9747 14.91516129367908
AEROCUBE 7              
1 40966U 15058C   26183.27746219  .00004492  00000+0  35978-3 0  9995
2 40966  64.7601 197.5464 0121217  55.7387 305.5136 14.95817640368214
FOX-1A (AO-85)          
1 40967U 15058D   26183.30990585  .00002565  00000+0  23448-3 0  9995
2 40967  64.7737 231.9854 0131423  50.7128 310.5553 14.91032716115824
SINOD-D 1               
1 40968U 15058E   26183.18675503  .00004124  00000+0  33092-3 0  9991
2 40968  64.7728 211.9368 0120042  47.1674 313.9452 14.95995464118903
SNAP-3 ALICE            
1 40970U 15058G   26183.02851753  .00155416  00000+0  15887-2 0  9992
2 40970  64.7496  52.4926 0023706   0.2063 359.9090 15.63950208119202
LMRST-SAT               
1 40971U 15058H   26183.26908494  .00002522  00000+0  23221-3 0  9995
2 40971  64.7743 228.4788 0132989  52.7606 308.5550 14.90649368115802
SNAP-3 EDDIE            
1 40972U 15058J   26183.00692072  .00153398  00000+0  14946-2 0  9991
2 40972  64.7410  43.1813 0024440   3.4118 356.7192 15.65141975121345
PROPCUBE 3              
1 40973U 15058K   26183.20065254  .00003623  00000+0  30219-3 0  9997
2 40973  64.7664 205.6254 0124902  54.0091 307.2526 14.94335832117049
BISONSAT                
1 40974U 15058L   26183.20194928  .00018693  00000+0  88315-3 0  9992
2 40974  64.7582 125.0855 0080836  41.1273 319.5905 15.16601138117897
SNAP-3 JIMI             
1 40975U 15058M   26183.29966166  .00007969  00000+0  54063-3 0  9990
2 40975  64.7634 171.9517 0107005  49.3328 311.7029 15.02456088116493
PROPCUBE 1 (FLORA)      
1 40976U 15058N   26183.30500412  .00002119  00000+0  20545-3 0  9991
2 40976  64.7731 248.3802 0131580  55.0593 306.2795 14.89283119118512
SINOD-D 3               
1 40977U 15058P   26183.30166149  .00003509  00000+0  29834-3 0  9991
2 40977  64.7707 228.6190 0120143  52.1438 309.0473 14.94099480117016
HORYU-4                 
1 41340U 16012D   26182.79199294  .04204222 -38650-5  11151-2 0  9996
2 41340  30.9791 330.1929 0008659 346.1826  13.8606 16.27112331573161
RAVAN                   
1 41849U 16067B   26183.22664337  .00060112  00000+0  85446-3 0  9998
2 41849  97.9863  74.5513 0001901 324.7714  35.3413 15.56197388530037
CELTEE 1                
1 41850U 16067C   26182.88980829  .00006116  00000+0  28895-3 0  9997
2 41850  98.0651  50.4594 0001762 125.7705 234.3693 15.19825617528111
OPTICUBE 04             
1 41851U 16067D   26183.12476192  .00002704  00000+0  17157-3 0  9997
2 41851  98.0684  36.1871 0016951  69.3371 290.9672 15.09725753527422
AEROCUBE 8D             
1 41852U 16067E   26183.18643447  .00009145  00000+0  37381-3 0  9990
2 41852  98.0659  54.4988 0005013  88.2153 271.9657 15.24608374528353
AEROCUBE 8C             
1 41853U 16067F   26182.35587173  .00010093  00000+0  40921-3 0  9990
2 41853  98.0534  50.8147 0005644  28.9587 331.1961 15.24848091528220
CORVUS BC2              
1 42846U 17042X   26182.94187456  .00003853  00000+0  26509-3 0  9994
2 42846  97.4073 343.7190 0014146  64.8133 295.4560 15.06385064489284
CORVUS BC1              
1 42847U 17042Y   26183.20053363  .00004584  00000+0  31333-3 0  9997
2 42847  97.4110 344.7914 0012602  42.4422 317.7778 15.06554624489357
MAKERSAT 0              
1 43016U 17073D   26182.74249883  .00021095  00000+0  56439-3 0  9992
2 43016  97.4602  65.3778 0104893 220.3477 138.9950 15.32570583468697
